NORAD_CAT_ID,OBJECT_NAME,OBJECT_TYPE,EPOCH,MEAN_MOTION,ECCENTRICITY,INCLINATION,RA_OF_ASC_NODE,ARG_OF_PERICENTER,MEAN_ANOMALY,BSTAR,MEAN_MOTION_DOT,MEAN_MOTION_DDOT,TLE_LINE0,TLE_LINE1,TLE_LINE2,SEMIMAJOR_AXIS,PERIOD,APOGEE,PERIGEE,DECAYED
55634.0,STARLINK-5500,PAYLOAD,2023-04-21 14:15:01,14.99143283,0.0003118,70.0003,339.7256,265.982,94.0983,4.4811e-05,4.52e-06,0.0,0 STARLINK-5500,1 55634U 23021G   23111.59376261  .00000452  00000-0  44811-4 0  9991,2 55634  70.0003 339.7256 0003118 265.9820  94.0983 14.99143283 10250,6947.679,96.055,571.71,567.378,0.0
55634.0,STARLINK-5500,PAYLOAD,2023-04-21 22:15:25,14.99143667,0.0003119,70.0003,338.8834,265.9315,94.1488,4.6094e-05,4.68e-06,0.0,0 STARLINK-5500,1 55634U 23021G   23111.92738140  .00000468  00000-0  46094-4 0  9998,2 55634  70.0003 338.8834 0003119 265.9315  94.1488 14.99143667 10608,6947.678,96.055,571.71,567.376,0.0
55634.0,STARLINK-5500,PAYLOAD,2023-04-23 07:53:56,14.98676067,0.0003155,70.0003,335.3479,260.805,99.2752,-0.0044753,-0.00053564,0.0,0 STARLINK-5500,1 55634U 23021G   23113.32912738 -.00053564  00000-0 -44753-2 0  9996,2 55634  70.0003 335.3479 0003155 260.8050  99.2752 14.98676067 10519,6949.123,96.085,573.18,568.795,0.0
55634.0,STARLINK-5500,PAYLOAD,2023-04-23 14:18:24,14.98655541,0.0003377,69.9994,334.6735,264.8868,95.1906,-0.0044424,-0.00053147,0.0,0 STARLINK-5500,1 55634U 23021G   23113.59611238 -.00053147  00000-0 -44424-2 0  9998,2 55634  69.9994 334.6735 0003377 264.8868  95.1906 14.98655541 10856,6949.186,96.086,573.398,568.705,0.0
55634.0,STARLINK-5500,PAYLOAD,2023-04-23 19:06:44,14.98641737,0.0003596,69.9992,334.1679,266.4231,93.6517,-0.0043394,-0.00051908,0.0,0 STARLINK-5500,1 55634U 23021G   23113.79635241 -.00051908  00000-0 -43394-2 0  9998,2 55634  69.9992 334.1679 0003596 266.4231  93.6517 14.98641737 10887,6949.229,96.087,573.593,568.595,0.0
55634.0,STARLINK-5500,PAYLOAD,2023-04-23 23:55:05,14.98629531,0.0003588,69.9991,333.6628,266.2041,93.8708,-0.0042208,-0.00050486,0.0,0 STARLINK-5500,1 55634U 23021G   23113.99659051 -.00050486  00000-0 -42208-2 0  9998,2 55634  69.9991 333.6628 0003588 266.2041  93.8708 14.98629531 10615,6949.267,96.088,573.625,568.638,0.0
55634.0,STARLINK-5500,PAYLOAD,2023-04-24 14:20:11,14.9845235,0.0003223,69.999,332.1476,256.2071,103.8729,-0.0016422,-0.00019695,0.0,0 STARLINK-5500,1 55634U 23021G   23114.59735113 -.00019695  00000-0 -16422-2 0  9995,2 55634  69.9990 332.1476 0003223 256.2071 103.8729 14.98452350 11009,6949.815,96.099,573.919,569.44,0.0
55634.0,STARLINK-5500,PAYLOAD,2023-04-25 14:22:14,14.98305984,0.0004213,69.9988,329.622,274.9146,85.1532,-0.00021419,-2.647e-05,0.0,0 STARLINK-5500,1 55634U 23021G   23115.59877957 -.00002647  00000-0 -21419-3 0  9991,2 55634  69.9988 329.6220 0004213 274.9146  85.1532 14.98305984 11154,6950.267,96.109,575.06,569.204,0.0
55634.0,STARLINK-5500,PAYLOAD,2023-04-26 06:00:00,14.98352456,0.000324,70.001,327.9795,274.8891,356.8655,-0.0036109,-0.00042941,0.0,0 STARLINK-5500,1 55634U 23021G   23116.25001157 -.00042941  00000-0 -36109-2 0  9998,2 55634  70.0010 327.9795 0003240 274.8891 356.8655 14.98352456 10953,6950.123,96.106,574.24,569.737,0.0
55634.0,STARLINK-5500,PAYLOAD,2023-04-26 14:00:01,14.98342651,0.0003246,70.0014,327.1392,270.7174,358.5252,0.0013501,0.00016059,0.0,0 STARLINK-5500,1 55634U 23021G   23116.58334491  .00016059  00000-0  13501-2 0  9994,2 55634  70.0014 327.1392 0003246 270.7174 358.5252 14.98342651  1304,6950.154,96.106,574.275,569.763,0.0
55634.0,STARLINK-5500,PAYLOAD,2023-04-26 22:00:00,14.98329357,0.000326,70.0012,326.2987,277.0112,349.7422,0.002538,0.00030321,0.0,0 STARLINK-5500,1 55634U 23021G   23116.91667824  .00030321  00000-0  25380-2 0  9996,2 55634  70.0012 326.2987 0003260 277.0112 349.7422 14.98329357  1309,6950.195,96.107,574.326,569.794,0.0
55634.0,STARLINK-5500,PAYLOAD,2023-04-27 12:50:07,14.98321721,0.0002763,70.003,324.7426,272.2801,87.8042,0.0004294,5.033e-05,0.0,0 STARLINK-5500,1 55634U 23021G   23117.53480930  .00005033  00000-0  42940-3 0  9990,2 55634  70.0030 324.7426 0002763 272.2801  87.8042 14.98321721 11440,6950.218,96.108,574.004,570.163,0.0
55634.0,STARLINK-5500,PAYLOAD,2023-04-27 20:50:47,14.98317249,0.0005184,70.0016,323.9011,276.9524,83.1045,0.00061025,7.195e-05,0.0,0 STARLINK-5500,1 55634U 23021G   23117.86860639  .00007195  00000-0  61025-3 0  9990,2 55634  70.0016 323.9011 0005184 276.9524  83.1045 14.98317249 11192,6950.232,96.108,575.7,568.494,0.0
55634.0,STARLINK-5500,PAYLOAD,2023-04-28 00:03:03,14.98332061,0.00038,69.999,323.5622,278.2898,81.783,0.00045365,5.324e-05,0.0,0 STARLINK-5500,1 55634U 23021G   23118.00212301  .00005324  00000-0  45365-3 0  9995,2 55634  69.9990 323.5622 0003800 278.2898  81.7830 14.98332061 11214,6950.187,96.107,574.693,569.41,0.0
55634.0,STARLINK-5500,PAYLOAD,2023-04-28 12:52:08,14.98343206,0.0002619,69.999,322.2158,272.5037,87.5822,1.2263e-05,5.3e-07,0.0,0 STARLINK-5500,1 55634U 23021G   23118.53620840  .00000053  00000-0  12263-4 0  9990,2 55634  69.9990 322.2158 0002619 272.5037  87.5822 14.98343206 11592,6950.152,96.106,573.837,570.197,0.0
55634.0,STARLINK-5500,PAYLOAD,2023-04-28 20:52:48,14.98340198,0.0002554,70.0002,321.3745,270.1888,89.8978,-3.2248e-05,-4.78e-06,0.0,0 STARLINK-5500,1 55634U 23021G   23118.87000835 -.00000478  00000-0 -32248-4 0  9991,2 55634  70.0002 321.3745 0002554 270.1888  89.8978 14.98340198 11344,6950.161,96.106,573.801,570.251,0.0
55634.0,STARLINK-5500,PAYLOAD,2023-04-29 06:29:37,14.98338893,0.0002651,69.9991,320.3642,272.9627,87.1228,-7.545e-05,-9.93e-06,0.0,0 STARLINK-5500,1 55634U 23021G   23119.27056763 -.00000993  00000-0 -75450-4 0  9991,2 55634  69.9991 320.3642 0002651 272.9627  87.1228 14.98338893 11700,6950.165,96.106,573.873,570.188,0.0
55634.0,STARLINK-5500,PAYLOAD,2023-04-30 00:07:05,14.98340643,0.0002941,69.9994,318.5129,269.5424,90.5398,-0.00010449,-1.34e-05,0.0,0 STARLINK-5500,1 55634U 23021G   23120.00492165 -.00001340  00000-0 -10449-3 0  9997,2 55634  69.9994 318.5129 0002941 269.5424  90.5398 14.98340643 11512,6950.16,96.106,574.069,569.981,0.0
55634.0,STARLINK-5500,PAYLOAD,2023-04-30 12:56:09,14.9833359,0.0002907,69.9994,317.1661,269.6722,90.4104,-1.9821e-06,-1.17e-06,0.0,0 STARLINK-5500,1 55634U 23021G   23120.53900078 -.00000117  00000-0 -19821-5 0  9998,2 55634  69.9994 317.1661 0002907 269.6722  90.4104 14.98333590 11890,6950.182,96.107,574.067,570.026,0.0
55634.0,STARLINK-5500,PAYLOAD,2023-05-01 12:58:10,14.98328182,0.0002929,69.9994,314.6411,269.7593,90.323,-7.5336e-06,-1.83e-06,0.0,0 STARLINK-5500,1 55634U 23021G   23121.54040316 -.00000183  00000-0 -75336-5 0  9996,2 55634  69.9994 314.6411 0002929 269.7593  90.3230 14.98328182 12044,6950.199,96.107,574.099,570.028,0.0
55634.0,STARLINK-5500,PAYLOAD,2023-05-01 14:34:18,14.98327633,0.0002946,69.9993,314.4729,269.0312,91.0509,-1.0935e-05,-2.23e-06,0.0,0 STARLINK-5500,1 55634U 23021G   23121.60716353 -.00000223  00000-0 -10935-4 0  9992,2 55634  69.9993 314.4729 0002946 269.0312  91.0509 14.98327633 11758,6950.2,96.107,574.113,570.018,0.0
55634.0,STARLINK-5500,PAYLOAD,2023-05-01 20:58:51,14.98327575,0.0002878,69.9996,313.8002,260.9636,99.1197,-1.8134e-05,-3.09e-06,0.0,0 STARLINK-5500,1 55634U 23021G   23121.87420367 -.00000309  00000-0 -18134-4 0  9992,2 55634  69.9996 313.8002 0002878 260.9636  99.1197 14.98327575 12096,6950.2,96.107,574.066,570.065,0.0
55634.0,STARLINK-5500,PAYLOAD,2023-05-02 13:00:11,14.98333663,0.0003024,69.9991,312.1154,266.7799,93.3014,3.938e-05,3.77e-06,0.0,0 STARLINK-5500,1 55634U 23021G   23122.54179795  .00000377  00000-0  39380-4 0  9992,2 55634  69.9991 312.1154 0003024 266.7799  93.3014 14.98333663 11895,6950.182,96.107,574.148,569.945,0.0
55634.0,STARLINK-5500,PAYLOAD,2023-05-02 21:00:51,14.98334256,0.0002998,69.9992,311.2738,266.261,93.8206,4.6177e-05,4.58e-06,0.0,0 STARLINK-5500,1 55634U 23021G   23122.87559667  .00000458  00000-0  46177-4 0  9990,2 55634  69.9992 311.2738 0002998 266.2610  93.8206 14.98334256 12247,6950.18,96.107,574.128,569.961,0.0
55634.0,STARLINK-5500,PAYLOAD,2023-05-03 13:02:12,14.98328404,0.0002978,69.9992,309.5906,266.3453,93.7365,4.303e-05,4.2e-06,0.0,0 STARLINK-5500,1 55634U 23021G   23123.54319977  .00000420  00000-0  43030-4 0  9997,2 55634  69.9992 309.5906 0002978 266.3453  93.7365 14.98328404 12049,6950.198,96.107,574.133,569.993,0.0
55634.0,STARLINK-5500,PAYLOAD,2023-05-03 21:02:52,14.98328159,0.0002991,69.9992,308.7489,265.9009,94.1808,3.3838e-05,3.11e-06,0.0,0 STARLINK-5500,1 55634U 23021G   23123.87700034  .00000311  00000-0  33838-4 0  9995,2 55634  69.9992 308.7489 0002991 265.9009  94.1808 14.98328159 12395,6950.199,96.107,574.142,569.985,0.0
55634.0,STARLINK-5500,PAYLOAD,2023-05-04 13:04:13,14.98333414,0.0002998,69.9991,307.0652,267.9279,92.1537,-2.7466e-06,-1.26e-06,0.0,0 STARLINK-5500,1 55634U 23021G   23124.54459790 -.00000126  00000-0 -27466-5 0  9997,2 55634  69.9991 307.0652 0002998 267.9279  92.1537 14.98333414 12191,6950.182,96.107,574.131,569.964,0.0
55634.0,STARLINK-5500,PAYLOAD,2023-05-04 21:04:53,14.98332846,0.0003019,69.9991,306.2236,267.9166,92.1647,-7.6624e-06,-1.84e-06,0.0,0 STARLINK-5500,1 55634U 23021G   23124.87839778 -.00000184  00000-0 -76624-5 0  9995,2 55634  69.9991 306.2236 0003019 267.9166  92.1647 14.98332846 12549,6950.184,96.107,574.147,569.951,0.0
55634.0,STARLINK-5500,PAYLOAD,2023-05-05 14:42:22,14.98328619,0.0003049,69.9991,304.3718,268.9155,91.1655,1.1091e-05,3.9e-07,0.0,0 STARLINK-5500,1 55634U 23021G   23125.61275947  .00000039  00000-0  11091-4 0  9993,2 55634  69.9991 304.3718 0003049 268.9155  91.1655 14.98328619 12355,6950.197,96.107,574.181,569.943,0.0
55634.0,STARLINK-5500,PAYLOAD,2023-05-05 21:06:54,14.98329019,0.0003058,69.9991,303.6986,268.7385,91.3424,1.4331e-05,7.8e-07,0.0,0 STARLINK-5500,1 55634U 23021G   23125.87979934  .00000078  00000-0  14331-4 0  9991,2 55634  69.9991 303.6986 0003058 268.7385  91.3424 14.98329019 12695,6950.196,96.107,574.186,569.936,0.0
